[{"OBJECT_NAME":"ASTROCAST-0403","OBJECT_ID":"2023-001DG","EPOCH":"2026-03-09T19:45:35.762976","MEAN_MOTION":15.28004949,"ECCENTRICITY":0.00047706,"INCLINATION":97.5604,"RA_OF_ASC_NODE":161.3228,"ARG_OF_PERICENTER":338.0704,"MEAN_ANOMALY":22.033,"EPHEMERIS_TYPE":0,"CLASSIFICATION_TYPE":"U","NORAD_CAT_ID":55111,"ELEMENT_SET_NO":999,"REV_AT_EPOCH":12937,"BSTAR":0.0005131719,"MEAN_MOTION_DOT":0.00013959,"MEAN_MOTION_DDOT":0},{"OBJECT_NAME":"STARLINK-30154","OBJECT_ID":"2023-113A","EPOCH":"2026-03-09T22:00:01.999584","MEAN_MOTION":15.26719674,"ECCENTRICITY":0.00013368,"INCLINATION":43.001,"RA_OF_ASC_NODE":14.5318,"ARG_OF_PERICENTER":255.4697,"MEAN_ANOMALY":73.4226,"EPHEMERIS_TYPE":0,"CLASSIFICATION_TYPE":"U","NORAD_CAT_ID":57495,"ELEMENT_SET_NO":999,"REV_AT_EPOCH":578,"BSTAR":0.00045255852,"MEAN_MOTION_DOT":0.00011892,"MEAN_MOTION_DDOT":0}]
